[{"OBJECT_NAME":"OBJECT B","OBJECT_ID":"2022-056B","EPOCH":"2026-03-09T22:39:35.138880","MEAN_MOTION":13.29579463,"ECCENTRICITY":0.00429696,"INCLINATION":86.011,"RA_OF_ASC_NODE":137.4743,"ARG_OF_PERICENTER":311.6914,"MEAN_ANOMALY":48.0548,"EPHEMERIS_TYPE":0,"CLASSIFICATION_TYPE":"U","NORAD_CAT_ID":52717,"ELEMENT_SET_NO":999,"REV_AT_EPOCH":18512,"BSTAR":-0.00081071563,"MEAN_MOTION_DOT":-3.63e-6,"MEAN_MOTION_DDOT":0},{"OBJECT_NAME":"ONEWEB-0669","OBJECT_ID":"2023-029AJ","EPOCH":"2026-03-09T16:55:49.639296","MEAN_MOTION":13.20771043,"ECCENTRICITY":0.00011964,"INCLINATION":87.9158,"RA_OF_ASC_NODE":294.3123,"ARG_OF_PERICENTER":65.8209,"MEAN_ANOMALY":294.305,"EPHEMERIS_TYPE":0,"CLASSIFICATION_TYPE":"U","NORAD_CAT_ID":55828,"ELEMENT_SET_NO":999,"REV_AT_EPOCH":14801,"BSTAR":-0.0001431934,"MEAN_MOTION_DOT":-4.5e-7,"MEAN_MOTION_DDOT":0}]
